start=new Date('2022-03-26T00:00:00.000Z').valueOf();
sats=[{"DECAY_DATE":null,"ECCENTRICITY":"0.00011950","TLE_LINE2":"2 51965  53.2194  59.2443 0001195 107.3767  63.0310 15.73158263  3823","PERIOD":"91.536","MEAN_ANOMALY":"63.0310","TIME_SYSTEM":"UTC","TLE_LINE1":"1 51965U 22025K   22084.83334491  .00070049  00000-0  50026-3 0  9994","CENTER_NAME":"EARTH","LAUNCH_DATE":"2022-03-09","EPOCH":"2022-03-25T20:00:01.000224","COUNTRY_CODE":"US","GP_ID":"199674315","FILE":"3374186","MEAN_MOTION_DDOT":"0.0000000000000","APOAPSIS":"350.683","SITE":"AFETR","RA_OF_ASC_NODE":"59.2443","MEAN_ELEMENT_THEORY":"SGP4","SEMIMAJOR_AXIS":"6728.014","MEAN_MOTION":"15.73158263","OBJECT_ID":"2022-025K","EPHEMERIS_TYPE":"0","REF_FRAME":"TEME","ARG_OF_PERICENTER":"107.3767","RCS_SIZE":"LARGE","ELEMENT_SET_NO":"999","OBJECT_TYPE":"PAYLOAD","CLASSIFICATION_TYPE":"U","MEAN_MOTION_DOT":"0.00070049","OBJECT_NAME":"STARLINK-3696","BSTAR":"0.00050026000000","NORAD_CAT_ID":"51965","REV_AT_EPOCH":"382","PERIAPSIS":"349.075","INCLINATION":"53.2194"},{"MEAN_ANOMALY":"120.2860","TIME_SYSTEM":"UTC","TLE_LINE1":"1 51966U 22025L   22084.58334491 -.00094805  00000-0 -67754-3 0  9991","DECAY_DATE":null,"ECCENTRICITY":"0.00011590","PERIOD":"91.531","TLE_LINE2":"2 51966  53.2198  60.4761 0001159  77.2455 120.2860 15.73240557  2748","FILE":"3373822","CENTER_NAME":"EARTH","GP_ID":"199665586","LAUNCH_DATE":"2022-03-09","COUNTRY_CODE":"US","EPOCH":"2022-03-25T14:00:01.000224","SITE":"AFETR","APOAPSIS":"350.424","MEAN_MOTION_DDOT":"0.0000000000000","SEMIMAJOR_AXIS":"6727.780","MEAN_ELEMENT_THEORY":"SGP4","RA_OF_ASC_NODE":"60.4761","OBJECT_ID":"2022-025L","EPHEMERIS_TYPE":"0","ARG_OF_PERICENTER":"77.2455","REF_FRAME":"TEME","MEAN_MOTION":"15.73240557","ELEMENT_SET_NO":"999","RCS_SIZE":"LARGE","MEAN_MOTION_DOT":"-0.00094805","OBJECT_NAME":"STARLINK-3699","CLASSIFICATION_TYPE":"U","OBJECT_TYPE":"PAYLOAD","PERIAPSIS":"348.865","REV_AT_EPOCH":"274","NORAD_CAT_ID":"51966","INCLINATION":"53.2198","BSTAR":"-0.00067754000000"},{"MEAN_MOTION":"15.73225756","OBJECT_ID":"2022-025M","EPHEMERIS_TYPE":"0","REF_FRAME":"TEME","ARG_OF_PERICENTER":"96.8506","RCS_SIZE":"MEDIUM","ELEMENT_SET_NO":"999","OBJECT_TYPE":"PAYLOAD","MEAN_MOTION_DOT":"-0.00089467","OBJECT_NAME":"STARLINK-3695","CLASSIFICATION_TYPE":"U","BSTAR":"-0.00063915000000","PERIAPSIS":"348.992","REV_AT_EPOCH":"274","NORAD_CAT_ID":"51967","INCLINATION":"53.2194","DECAY_DATE":null,"ECCENTRICITY":"0.00010320","PERIOD":"91.532","TLE_LINE2":"2 51967  53.2194  60.4804 0001032  96.8506  98.0734 15.73225756  2743","TIME_SYSTEM":"UTC","MEAN_ANOMALY":"98.0734","TLE_LINE1":"1 51967U 22025M   22084.58334491 -.00089467  00000-0 -63915-3 0  9995","CENTER_NAME":"EARTH","GP_ID":"199666135","COUNTRY_CODE":"US","LAUNCH_DATE":"2022-03-09","EPOCH":"2022-03-25T14:00:01.000224","FILE":"3373822","MEAN_MOTION_DDOT":"0.0000000000000","SITE":"AFETR","APOAPSIS":"350.381","RA_OF_ASC_NODE":"60.4804","MEAN_ELEMENT_THEORY":"SGP4","SEMIMAJOR_AXIS":"6727.822"},{"MEAN_MOTION":"15.73296822","REF_FRAME":"TEME","ARG_OF_PERICENTER":"75.8617","EPHEMERIS_TYPE":"0","OBJECT_ID":"2022-025N","RCS_SIZE":"MEDIUM","ELEMENT_SET_NO":"999","OBJECT_TYPE":"PAYLOAD","MEAN_MOTION_DOT":"-0.00141091","OBJECT_NAME":"STARLINK-3681","CLASSIFICATION_TYPE":"U","BSTAR":"-0.00101360000000","INCLINATION":"53.2179","NORAD_CAT_ID":"51968","PERIAPSIS":"348.712","REV_AT_EPOCH":"274","TLE_LINE2":"2 51968  53.2179  60.4740 0001147  75.8617 122.8887 15.73296822  2740","PERIOD":"91.528","DECAY_DATE":null,"ECCENTRICITY":"0.00011470","TLE_LINE1":"1 51968U 22025N   22084.58334491 -.00141091  00000-0 -10136-2 0  9994","MEAN_ANOMALY":"122.8887","TIME_SYSTEM":"UTC","COUNTRY_CODE":"US","LAUNCH_DATE":"2022-03-09","EPOCH":"2022-03-25T14:00:01.000224","GP_ID":"199666026","CENTER_NAME":"EARTH","FILE":"3373822","MEAN_MOTION_DDOT":"0.0000000000000","SITE":"AFETR","APOAPSIS":"350.256","RA_OF_ASC_NODE":"60.4740","SEMIMAJOR_AXIS":"6727.619","MEAN_ELEMENT_THEORY":"SGP4"},{"BSTAR":"-0.00078105000000","NORAD_CAT_ID":"51969","PERIAPSIS":"348.829","REV_AT_EPOCH":"274","INCLINATION":"53.2195","OBJECT_TYPE":"PAYLOAD","MEAN_MOTION_DOT":"-0.00109062","CLASSIFICATION_TYPE":"U","OBJECT_NAME":"STARLINK-3680","RCS_SIZE":"MEDIUM","ELEMENT_SET_NO":"999","MEAN_MOTION":"15.73251305","EPHEMERIS_TYPE":"0","OBJECT_ID":"2022-025P","ARG_OF_PERICENTER":"72.1278","REF_FRAME":"TEME","RA_OF_ASC_NODE":"60.4795","MEAN_ELEMENT_THEORY":"SGP4","SEMIMAJOR_AXIS":"6727.749","MEAN_MOTION_DDOT":"0.0000000000000","APOAPSIS":"350.398","SITE":"AFETR","CENTER_NAME":"EARTH","LAUNCH_DATE":"2022-03-09","COUNTRY_CODE":"US","EPOCH":"2022-03-25T14:00:01.000224","GP_ID":"199666244","FILE":"3373822","DECAY_DATE":null,"ECCENTRICITY":"0.00011660","TLE_LINE2":"2 51969  53.2195  60.4795 0001166  72.1278 123.4811 15.73251305  2744","PERIOD":"91.530","MEAN_ANOMALY":"123.4811","TIME_SYSTEM":"UTC","TLE_LINE1":"1 51969U 22025P   22084.58334491 -.00109062  00000-0 -78105-3 0  9998"},{"MEAN_MOTION_DDOT":"0.0000000000000","APOAPSIS":"350.212","SITE":"AFETR","RA_OF_ASC_NODE":"60.4717","SEMIMAJOR_AXIS":"6727.610","MEAN_ELEMENT_THEORY":"SGP4","PERIOD":"91.527","TLE_LINE2":"2 51970  53.2179  60.4717 0001095  62.6678 137.4063 15.73299918  2747","ECCENTRICITY":"0.00010950","DECAY_DATE":null,"TLE_LINE1":"1 51970U 22025Q   22084.58334491 -.00161104  00000-0 -11606-2 0  9997","MEAN_ANOMALY":"137.4063","TIME_SYSTEM":"UTC","GP_ID":"199665917","EPOCH":"2022-03-25T14:00:01.000224","LAUNCH_DATE":"2022-03-09","COUNTRY_CODE":"US","CENTER_NAME":"EARTH","FILE":"3373822","OBJECT_TYPE":"PAYLOAD","CLASSIFICATION_TYPE":"U","MEAN_MOTION_DOT":"-0.00161104","OBJECT_NAME":"STARLINK-3677","BSTAR":"-0.00116060000000","INCLINATION":"53.2179","PERIAPSIS":"348.739","REV_AT_EPOCH":"274","NORAD_CAT_ID":"51970","MEAN_MOTION":"15.73299918","REF_FRAME":"TEME","ARG_OF_PERICENTER":"62.6678","EPHEMERIS_TYPE":"0","OBJECT_ID":"2022-025Q","RCS_SIZE":"MEDIUM","ELEMENT_SET_NO":"999"},{"PERIAPSIS":"348.903","REV_AT_EPOCH":"384","NORAD_CAT_ID":"51971","INCLINATION":"53.2196","BSTAR":"0.00009962500000","OBJECT_NAME":"STARLINK-3669","MEAN_MOTION_DOT":"0.00013378","CLASSIFICATION_TYPE":"U","OBJECT_TYPE":"PAYLOAD","ELEMENT_SET_NO":"999","RCS_SIZE":"MEDIUM","OBJECT_ID":"2022-025R","EPHEMERIS_TYPE":"0","REF_FRAME":"TEME","ARG_OF_PERICENTER":"98.0797","MEAN_MOTION":"15.73190249","SEMIMAJOR_AXIS":"6727.923","MEAN_ELEMENT_THEORY":"SGP4","RA_OF_ASC_NODE":"59.2385","APOAPSIS":"350.673","SITE":"AFETR","MEAN_MOTION_DDOT":"0.0000000000000","FILE":"3374186","CENTER_NAME":"EARTH","GP_ID":"199673898","COUNTRY_CODE":"US","LAUNCH_DATE":"2022-03-09","EPOCH":"2022-03-25T20:00:01.000224","MEAN_ANOMALY":"75.5121","TIME_SYSTEM":"UTC","TLE_LINE1":"1 51971U 22025R   22084.83334491  .00013378  00000-0  99625-4 0  9992","ECCENTRICITY":"0.00013160","DECAY_DATE":null,"PERIOD":"91.534","TLE_LINE2":"2 51971  53.2196  59.2385 0001316  98.0797  75.5121 15.73190249  3841"},{"ELEMENT_SET_NO":"999","RCS_SIZE":"LARGE","OBJECT_ID":"2022-025S","EPHEMERIS_TYPE":"0","REF_FRAME":"TEME","ARG_OF_PERICENTER":"82.2102","MEAN_MOTION":"15.73141481","REV_AT_EPOCH":"383","PERIAPSIS":"349.223","NORAD_CAT_ID":"51972","INCLINATION":"53.2177","BSTAR":"0.00069578000000","MEAN_MOTION_DOT":"0.00097926","CLASSIFICATION_TYPE":"U","OBJECT_NAME":"STARLINK-3671","OBJECT_TYPE":"PAYLOAD","FILE":"3374186","CENTER_NAME":"EARTH","GP_ID":"199674318","LAUNCH_DATE":"2022-03-09","COUNTRY_CODE":"US","EPOCH":"2022-03-25T20:00:01.000224","MEAN_ANOMALY":"95.8416","TIME_SYSTEM":"UTC","TLE_LINE1":"1 51972U 22025S   22084.83334491  .00097926  00000-0  69578-3 0  9997","DECAY_DATE":null,"ECCENTRICITY":"0.00010460","PERIOD":"91.537","TLE_LINE2":"2 51972  53.2177  59.2306 0001046  82.2102  95.8416 15.73141481  3834","MEAN_ELEMENT_THEORY":"SGP4","SEMIMAJOR_AXIS":"6728.062","RA_OF_ASC_NODE":"59.2306","SITE":"AFETR","APOAPSIS":"350.631","MEAN_MOTION_DDOT":"0.0000000000000"},{"COUNTRY_CODE":"US","LAUNCH_DATE":"2022-03-09","EPOCH":"2022-03-25T14:00:01.000224","GP_ID":"199666353","CENTER_NAME":"EARTH","FILE":"3373822","TLE_LINE2":"2 51973  53.2197  60.4719 0001305  67.2043 132.2254 15.73247546  2748","PERIOD":"91.530","DECAY_DATE":null,"ECCENTRICITY":"0.00013050","TLE_LINE1":"1 51973U 22025T   22084.58334491 -.00091217  00000-0 -65124-3 0  9992","TIME_SYSTEM":"UTC","MEAN_ANOMALY":"132.2254","RA_OF_ASC_NODE":"60.4719","SEMIMAJOR_AXIS":"6727.760","MEAN_ELEMENT_THEORY":"SGP4","MEAN_MOTION_DDOT":"0.0000000000000","APOAPSIS":"350.503","SITE":"AFETR","RCS_SIZE":"LARGE","ELEMENT_SET_NO":"999","MEAN_MOTION":"15.73247546","ARG_OF_PERICENTER":"67.2043","REF_FRAME":"TEME","OBJECT_ID":"2022-025T","EPHEMERIS_TYPE":"0","BSTAR":"-0.00065124000000","INCLINATION":"53.2197","NORAD_CAT_ID":"51973","PERIAPSIS":"348.747","REV_AT_EPOCH":"274","OBJECT_TYPE":"PAYLOAD","OBJECT_NAME":"STARLINK-3679","MEAN_MOTION_DOT":"-0.00091217","CLASSIFICATION_TYPE":"U"},{"BSTAR":"-0.00264940000000","PERIAPSIS":"332.175","REV_AT_EPOCH":"275","NORAD_CAT_ID":"51974","INCLINATION":"53.2172","OBJECT_TYPE":"PAYLOAD","MEAN_MOTION_DOT":"-0.00458436","OBJECT_NAME":"STARLINK-3672","CLASSIFICATION_TYPE":"U","RCS_SIZE":"MEDIUM","ELEMENT_SET_NO":"999","MEAN_MOTION":"15.79121641","OBJECT_ID":"2022-025U","EPHEMERIS_TYPE":"0","REF_FRAME":"TEME","ARG_OF_PERICENTER":"115.0796","RA_OF_ASC_NODE":"59.9026","MEAN_ELEMENT_THEORY":"SGP4","SEMIMAJOR_AXIS":"6711.065","MEAN_MOTION_DDOT":"0.0000000000000","APOAPSIS":"333.685","SITE":"AFETR","CENTER_NAME":"EARTH","GP_ID":"199665587","LAUNCH_DATE":"2022-03-09","COUNTRY_CODE":"US","EPOCH":"2022-03-25T14:00:01.000224","FILE":"3373822","DECAY_DATE":null,"ECCENTRICITY":"0.00011250","PERIOD":"91.190","TLE_LINE2":"2 51974  53.2172  59.9026 0001125 115.0796   6.2851 15.79121641  2750","MEAN_ANOMALY":"6.2851","TIME_SYSTEM":"UTC","TLE_LINE1":"1 51974U 22025U   22084.58334491 -.00458436  00000-0 -26494-2 0  9999"}];
